LEMUR-2-TOMATOKECHUP    
1 60471U 24149D   26157.94400669  .00012480  00000+0  36024-3 0  9999
2 60471  97.3793 239.9666 0000446 205.8269 154.2953 15.35818906100595
CONNECTA IOT-1          
1 60472U 24149E   26157.45560698  .00005035  00000+0  21418-3 0  9994
2 60472  97.3754 233.9289 0001277  13.0146 347.1124 15.23458470100163
LOPEN                   
1 60473U 24149F   26157.47086840  .00019663  00000+0  50443-3 0  9991
2 60473  97.3773 240.7576 0000203  33.1105 327.0154 15.39377611100610
ROCK                    
1 60474U 24149G   26157.97743872  .00017655  00000+0  45306-3 0  9993
2 60474  97.3777 241.2851 0000260 283.3415  76.7802 15.39392013100692
CONNECTA IOT-3          
1 60475U 24149H   26158.00252134  .00004658  00000+0  19829-3 0  9995
2 60475  97.3729 234.2226 0001625 327.9819  32.1319 15.23474316100258
QUBE                    
1 60476U 24149J   26157.50038486  .00029739  00000+0  59517-3 0  9997
2 60476  97.3772 243.7319 0001074 233.8436 126.2715 15.46720625100812
WREN-1                  
1 60478U 24149L   26157.48737760  .00025829  00000+0  62420-3 0  9990
2 60478  97.3761 241.4911 0002909 303.6378  56.4591 15.41140542100673
TOMORROW-S1             
1 60479U 24149M   26158.01662831  .00008485  00000+0  27220-3 0  9995
2 60479  97.3744 238.5223 0001018 290.6186  69.4947 15.32575353100536
FLOCK 4BE-18            
1 60480U 24149N   26157.50114512  .00023142  00000+0  55285-3 0  9997
2 60480  97.3723 241.1227 0002398 297.8764  62.2240 15.41512275100667
FLOCK 4BE-7             
1 60481U 24149P   26157.95252672  .00024986  00000+0  62900-3 0  9996
2 60481  97.3753 240.9378 0001492 296.6857  63.4236 15.39906732100670
TOMORROW-S2             
1 60485U 24149T   26157.98204292  .00008879  00000+0  28450-3 0  9993
2 60485  97.3813 238.9669 0001619 338.6648  21.4526 15.32600307100529
FLOCK 4BE-36            
1 60486U 24149U   26157.93279952  .00019195  00000+0  44568-3 0  9995
2 60486  97.3739 242.2409 0002209 314.0252  46.0813 15.42409136100779
FLOCK 4BE-25            
1 60487U 24149V   26157.48756992  .00018684  00000+0  49241-3 0  9995
2 60487  97.3792 240.5681 0000725 312.1238  47.9946 15.38560856100595
FLOCK 4BE-31            
1 60488U 24149W   26157.19470790  .00029671  00000+0  65874-3 0  9991
2 60488  97.3796 242.3217 0001246 332.0989  28.0192 15.43663670100685
FLOCK 4BE-20            
1 60489U 24149X   26157.18531386  .00019791  00000+0  53480-3 0  9992
2 60489  97.3691 239.1712 0002301 316.8300  43.2764 15.37772193100525
FLOCK 4BE-23            
1 60490U 24149Y   26157.95387899  .00015130  00000+0  41427-3 0  9998
2 60490  97.3775 240.3130 0001963 324.6157  35.4957 15.37422655100621
FLOCK 4BE-15            
1 60491U 24149Z   26157.49497701  .00104601  00000+0  13863-2 0  9996
2 60491  97.3681 242.4908 0001502 260.2707  99.8379 15.57919493100769
FLOCK 4BE-17            
1 60492U 24149AA  26157.49695967  .00019682  00000+0  50327-3 0  9992
2 60492  97.3770 240.7850 0001553 303.2382  56.8715 15.39478170100612
NUSAT-50 (NANCY ROMAN)  
1 60493U 24149AB  26157.96422388  .00010955  00000+0  38341-3 0  9996
2 60493  97.3782 239.2930 0002496 209.5077 150.6023 15.29678565100562
FLOCK 4BE-22            
1 60494U 24149AC  26158.00754816  .00017125  00000+0  41889-3 0  9994
2 60494  97.3731 241.4750 0002193 314.6262  45.4805 15.40858448100731
FLOCK 4BE-34            
1 60495U 24149AD  26157.18045910  .00021515  00000+0  52573-3 0  9991
2 60495  97.3782 241.4572 0002260 339.9542  20.1615 15.40843621100631
TYCHE                   
1 60496U 24149AE  26157.97144439  .00005100  00000+0  20174-3 0  9999
2 60496  97.3749 235.9240 0001061 350.7928   9.3291 15.25903966100341
FLOCK 4BE-32            
1 60497U 24149AF  26157.48051624  .00023176  00000+0  54847-3 0  9996
2 60497  97.3715 241.2951 0002252 321.7900  38.3187 15.41797281100687
NUSAT-48 (HENRIETTA LE*)
1 60498U 24149AG  26157.03798339  .00013471  00000+0  46719-3 0  9995
2 60498  97.3909 238.5951 0002883 333.9515  26.1580 15.29924928100430
FLOCK 4BE-30            
1 60499U 24149AH  26157.18995269  .00157038  00000+0  24033-2 0  9995
2 60499  97.3790 242.3634 0002632 247.7055 112.3920 15.53809278100065
NUSAT-49 (KLARA DAN VO*)
1 60500U 24149AJ  26157.14673221  .00012353  00000+0  42352-3 0  9990
2 60500  97.3774 238.5123 0002011  27.7139 332.4208 15.30320220100446
FLOCK 4BE-11            
1 60501U 24149AK  26157.67544694  .00020898  00000+0  48131-3 0  9994
2 60501  97.3701 241.7131 0002270 321.5456  38.5629 15.42634440100734
YAM-7                   
1 60504U 24149AN  26157.67029333  .00008424  00000+0  27790-3 0  9994
2 60504  97.3780 237.9639 0002779 359.9960   0.1281 15.31674058100447
FLOCK 4BE-24            
1 60505U 24149AP  26157.98681365  .00022884  00000+0  52562-3 0  9999
2 60505  97.3713 242.2800 0002667 330.3906  29.7190 15.42697616100793
